OBJECT_NAME,OBJECT_ID,EPOCH,MEAN_MOTION,ECCENTRICITY,INCLINATION,RA_OF_ASC_NODE,ARG_OF_PERICENTER,MEAN_ANOMALY,EPHEMERIS_TYPE,CLASSIFICATION_TYPE,NORAD_CAT_ID,ELEMENT_SET_NO,REV_AT_EPOCH,BSTAR,MEAN_MOTION_DOT,MEAN_MOTION_DDOT
IONOSFERA-M 4,2025-155B,2026-07-07T04:48:53.540352,14.21492201,.0001665,98.6041,149.5200,107.3451,252.7909,0,U,64877,999,4924,.36645E-4,.37E-6,0
MICROCARB,2025-156A,2026-07-07T04:39:59.374080,14.72879090,.0016989,98.0076,265.0088,196.3569,163.7093,0,U,64899,999,5091,.83982E-4,.489E-5,0
CO3D 3,2025-156B,2026-07-07T04:44:46.819968,15.20193574,.000182,97.4328,266.6033,100.6233,259.5207,0,U,64900,999,5257,.14229E-3,.3013E-4,0
CO3D 4,2025-156C,2026-07-07T04:44:59.830080,15.20205916,.0001054,97.4334,266.6034,170.4514,189.6741,0,U,64901,999,5257,.69733E-4,.1442E-4,0
CO3D 2,2025-156D,2026-07-07T03:56:58.944768,15.20202917,.0001389,97.4328,266.4694,89.1746,270.9648,0,U,64902,999,5256,.17188E-3,.3655E-4,0
CO3D 1,2025-156E,2026-07-07T03:57:12.004128,15.20207421,.0001329,97.4328,266.4696,100.3480,259.7905,0,U,64903,999,5256,.17022E-3,.362E-4,0
PRSC-S1,2025-164A,2026-07-07T03:39:04.355136,15.06595112,.0005415,41.1291,175.3561,141.2031,218.9172,0,U,65055,999,5144,.16552E-3,.2317E-4,0
SENTINEL-6B,2025-264A,2026-07-07T03:37:56.380800,12.80930114,.000789,66.0415,93.7141,268.8438,91.1673,0,U,66514,999,2972,.50778E-4,-.49E-6,0
CAS500-3,2025-274F,2026-07-06T17:05:16.309248,14.88370140,.0006747,97.7440,115.3190,60.4707,299.7182,0,U,66655,999,3305,.14023E-3,.1245E-4,0
CSG-3,2026-001A,2026-07-06T23:30:38.687616,14.82148038,.0001484,97.8893,11.2950,94.2500,265.8883,0,U,67304,999,2739,.3876E-4,.256E-5,0
PRSC-E03,2026-092A,2026-07-06T20:54:46.166688,15.06781981,.0004056,38.0023,333.5993,198.1958,161.8659,0,U,68835,999,1092,.16894E-3,.2454E-4,0
CAS500-2,2026-100AK,2026-07-06T16:40:57.266400,15.20835464,.0008414,97.3874,85.1838,327.2220,32.8492,0,U,69013,999,977,.22011E-3,.4793E-4,0
