IONOSFERA-M 4           
1 64877U 25155B   26188.20061968  .00000037  00000+0  36645-4 0  9994
2 64877  98.6041 149.5200 0001665 107.3451 252.7909 14.21492201 49241
MICROCARB               
1 64899U 25156A   26188.19443720  .00000489  00000+0  83982-4 0  9994
2 64899  98.0076 265.0088 0016989 196.3569 163.7093 14.72879090 50910
CO3D 3                  
1 64900U 25156B   26188.19776412  .00003013  00000+0  14229-3 0  9997
2 64900  97.4328 266.6033 0001820 100.6233 259.5207 15.20193574 52572
CO3D 4                  
1 64901U 25156C   26188.19791470  .00001442  00000+0  69733-4 0  9994
2 64901  97.4334 266.6034 0001054 170.4514 189.6741 15.20205916 52577
CO3D 2                  
1 64902U 25156D   26188.16457112  .00003655  00000+0  17188-3 0  9998
2 64902  97.4328 266.4694 0001389  89.1746 270.9648 15.20202917 52562
CO3D 1                  
1 64903U 25156E   26188.16472227  .00003620  00000+0  17022-3 0  9992
2 64903  97.4328 266.4696 0001329 100.3480 259.7905 15.20207421 52566
PRSC-S1                 
1 65055U 25164A   26188.15213374  .00002317  00000+0  16552-3 0  9994
2 65055  41.1291 175.3561 0005415 141.2031 218.9172 15.06595112 51445
SENTINEL-6B             
1 66514U 25264A   26188.15134700 -.00000049  00000+0  50778-4 0  9991
2 66514  66.0415  93.7141 0007890 268.8438  91.1673 12.80930114 29720
CAS500-3                
1 66655U 25274F   26187.71199432  .00001245  00000+0  14023-3 0  9992
2 66655  97.7440 115.3190 0006747  60.4707 299.7182 14.88370140 33054
CSG-3                   
1 67304U 26001A   26187.97961444  .00000256  00000+0  38760-4 0  9997
2 67304  97.8893  11.2950 0001484  94.2500 265.8883 14.82148038 27391
PRSC-E03                
1 68835U 26092A   26187.87136767  .00002454  00000+0  16894-3 0  9993
2 68835  38.0023 333.5993 0004056 198.1958 161.8659 15.06781981 10923
CAS500-2                
1 69013U 26100AK  26187.69510725  .00004793  00000+0  22011-3 0  9998
2 69013  97.3874  85.1838 0008414 327.2220  32.8492 15.20835464  9776
